[{"OBJECT_NAME":"STARLINK-30108","OBJECT_ID":"2023-056P","EPOCH":"2026-03-09T13:07:34.368384","MEAN_MOTION":15.11980738,"ECCENTRICITY":0.00017014,"INCLINATION":43.0001,"RA_OF_ASC_NODE":197.0429,"ARG_OF_PERICENTER":278.3718,"MEAN_ANOMALY":81.6935,"EPHEMERIS_TYPE":0,"CLASSIFICATION_TYPE":"U","NORAD_CAT_ID":56299,"ELEMENT_SET_NO":999,"REV_AT_EPOCH":16022,"BSTAR":-0.00011039932,"MEAN_MOTION_DOT":-2.151e-5,"MEAN_MOTION_DDOT":0},{"OBJECT_NAME":"OBJECT BS","OBJECT_ID":"2018-099BS","EPOCH":"2026-03-09T16:09:03.028608","MEAN_MOTION":15.13564051,"ECCENTRICITY":0.00072889,"INCLINATION":97.4457,"RA_OF_ASC_NODE":121.015,"ARG_OF_PERICENTER":347.6869,"MEAN_ANOMALY":12.4183,"EPHEMERIS_TYPE":0,"CLASSIFICATION_TYPE":"U","NORAD_CAT_ID":43822,"ELEMENT_SET_NO":999,"REV_AT_EPOCH":39116,"BSTAR":0.00035877018,"MEAN_MOTION_DOT":6.374e-5,"MEAN_MOTION_DDOT":0}]
